{
  "type": "FeatureCollection",
  "features": [
    {
      "type": "Feature",
      "properties": {
        "norad_id": 38867,
        "name": "INTELSAT 23 (IS-23)",
        "group": "intelsat",
        "lat": -0.02223904899088459,
        "lon": -9.706033221701626,
        "alt_km": 35783.7714094991,
        "timestamp": "2025-12-26T20:30:45.601041+00:00",
        "meta_object_name": "INTELSAT 23 (IS-23)",
        "meta_object_id": "2012-057A",
        "meta_epoch": "2025-12-26T11:04:04.439136",
        "meta_mean_motion": 1.00273117,
        "meta_eccentricity": 6.463e-05,
        "meta_inclination": 0.0181,
        "meta_ra_of_asc_node": 78.0807,
        "meta_arg_of_pericenter": 229.1315,
        "meta_mean_anomaly": 261.0227,
        "meta_ephemeris_type": 0,
        "meta_classification_type": "U",
        "meta_norad_cat_id": 38867,
        "meta_element_set_no": 999,
        "meta_rev_at_epoch": 4822,
        "meta_bstar": 0,
        "meta_mean_motion_dot": -2.63e-06,
        "meta_mean_motion_ddot": 0,
        "tle_line1": "1 38867U 12057A   25360.46116249 -.00000263  00000+0  00000+0 0  9996",
        "tle_line2": "2 38867   0.0181  78.0807 0000646 229.1315 261.0227  1.00273117 48221"
      },
      "geometry": {
        "type": "Point",
        "coordinates": [
          -9.706033221701626,
          -0.02223904899088459
        ]
      }
    },
    {
      "type": "Feature",
      "properties": {
        "norad_id": 39360,
        "name": "FM-6",
        "group": "intelsat",
        "lat": -0.024777565562656558,
        "lon": -72.87960643428877,
        "alt_km": 35791.09837971042,
        "timestamp": "2025-12-26T20:30:45.601052+00:00",
        "meta_object_name": "FM-6",
        "meta_object_id": "2013-058A",
        "meta_epoch": "2025-12-25T23:15:38.712384",
        "meta_mean_motion": 1.00267622,
        "meta_eccentricity": 0.00031338,
        "meta_inclination": 0.0194,
        "meta_ra_of_asc_node": 74.6696,
        "meta_arg_of_pericenter": 105.3027,
        "meta_mean_anomaly": 147.4825,
        "meta_ephemeris_type": 0,
        "meta_classification_type": "U",
        "meta_norad_cat_id": 39360,
        "meta_element_set_no": 999,
        "meta_rev_at_epoch": 4433,
        "meta_bstar": 0,
        "meta_mean_motion_dot": 5e-08,
        "meta_mean_motion_ddot": 0,
        "tle_line1": "1 39360U 13058A   25359.96919806  .00000005  00000+0  00000+0 0  9993",
        "tle_line2": "2 39360   0.0194  74.6696 0003133 105.3027 147.4825  1.00267622 44334"
      },
      "geometry": {
        "type": "Point",
        "coordinates": [
          -72.87960643428877,
          -0.024777565562656558
        ]
      }
    },
    {
      "type": "Feature",
      "properties": {
        "norad_id": 40271,
        "name": "INTELSAT 30 (IS-30)",
        "group": "intelsat",
        "lat": -0.0343353742284374,
        "lon": -51.79168182967534,
        "alt_km": 35790.657831710625,
        "timestamp": "2025-12-26T20:30:45.601062+00:00",
        "meta_object_name": "INTELSAT 30 (IS-30)",
        "meta_object_id": "2014-062A",
        "meta_epoch": "2025-12-26T05:38:38.556672",
        "meta_mean_motion": 1.00271488,
        "meta_eccentricity": 0.00014248,
        "meta_inclination": 0.0176,
        "meta_ra_of_asc_node": 41.6763,
        "meta_arg_of_pericenter": 44.2324,
        "meta_mean_anomaly": 358.6785,
        "meta_ephemeris_type": 0,
        "meta_classification_type": "U",
        "meta_norad_cat_id": 40271,
        "meta_element_set_no": 999,
        "meta_rev_at_epoch": 506,
        "meta_bstar": 0,
        "meta_mean_motion_dot": -1.29e-06,
        "meta_mean_motion_ddot": 0,
        "tle_line1": "1 40271U 14062A   25360.23516848 -.00000129  00000+0  00000+0 0  9991",
        "tle_line2": "2 40271   0.0176  41.6763 0001424  44.2324 358.6785  1.00271488  5061"
      },
      "geometry": {
        "type": "Point",
        "coordinates": [
          -51.79168182967534,
          -0.0343353742284374
        ]
      }
    },
    {
      "type": "Feature",
      "properties": {
        "norad_id": 40333,
        "name": "DIRECTV 14",
        "group": "intelsat",
        "lat": -0.02421130177463811,
        "lon": -55.86208718395278,
        "alt_km": 35783.28332603337,
        "timestamp": "2025-12-26T20:30:45.601072+00:00",
        "meta_object_name": "DIRECTV 14",
        "meta_object_id": "2014-078B",
        "meta_epoch": "2025-12-24T12:37:43.773312",
        "meta_mean_motion": 1.00279829,
        "meta_eccentricity": 3.885e-05,
        "meta_inclination": 0.0184,
        "meta_ra_of_asc_node": 340.4706,
        "meta_arg_of_pericenter": 254.7884,
        "meta_mean_anomaly": 308.2619,
        "meta_ephemeris_type": 0,
        "meta_classification_type": "U",
        "meta_norad_cat_id": 40333,
        "meta_element_set_no": 999,
        "meta_rev_at_epoch": 4029,
        "meta_bstar": 0,
        "meta_mean_motion_dot": -1.06e-06,
        "meta_mean_motion_ddot": 0,
        "tle_line1": "1 40333U 14078B   25358.52620108 -.00000106  00000+0  00000+0 0  9996",
        "tle_line2": "2 40333   0.0184 340.4706 0000388 254.7884 308.2619  1.00279829 40291"
      },
      "geometry": {
        "type": "Point",
        "coordinates": [
          -55.86208718395278,
          -0.02421130177463811
        ]
      }
    },
    {
      "type": "Feature",
      "properties": {
        "norad_id": 40663,
        "name": "DIRECTV 15",
        "group": "intelsat",
        "lat": -0.03616640361818867,
        "lon": -59.626013778348955,
        "alt_km": 35788.18590468951,
        "timestamp": "2025-12-26T20:30:45.601083+00:00",
        "meta_object_name": "DIRECTV 15",
        "meta_object_id": "2015-026A",
        "meta_epoch": "2025-12-26T07:34:38.576064",
        "meta_mean_motion": 1.00269733,
        "meta_eccentricity": 3.614e-05,
        "meta_inclination": 0.018,
        "meta_ra_of_asc_node": 29.1854,
        "meta_arg_of_pericenter": 84.7041,
        "meta_mean_anomaly": 351.9356,
        "meta_ephemeris_type": 0,
        "meta_classification_type": "U",
        "meta_norad_cat_id": 40663,
        "meta_element_set_no": 999,
        "meta_rev_at_epoch": 3873,
        "meta_bstar": 0,
        "meta_mean_motion_dot": -8e-07,
        "meta_mean_motion_ddot": 0,
        "tle_line1": "1 40663U 15026A   25360.31572426 -.00000080  00000+0  00000+0 0  9996",
        "tle_line2": "2 40663   0.0180  29.1854 0000361  84.7041 351.9356  1.00269733 38737"
      },
      "geometry": {
        "type": "Point",
        "coordinates": [
          -59.626013778348955,
          -0.03616640361818867
        ]
      }
    },
    {
      "type": "Feature",
      "properties": {
        "norad_id": 40664,
        "name": "SKY MEXICO-1",
        "group": "intelsat",
        "lat": -0.025722966827567296,
        "lon": -35.46807998904725,
        "alt_km": 35777.33173542512,
        "timestamp": "2025-12-26T20:30:45.601093+00:00",
        "meta_object_name": "SKY MEXICO-1",
        "meta_object_id": "2015-026B",
        "meta_epoch": "2025-12-26T12:33:56.173248",
        "meta_mean_motion": 1.00272266,
        "meta_eccentricity": 0.00025283,
        "meta_inclination": 0.0148,
        "meta_ra_of_asc_node": 16.6993,
        "meta_arg_of_pericenter": 271.8752,
        "meta_mean_anomaly": 276.4147,
        "meta_ephemeris_type": 0,
        "meta_classification_type": "U",
        "meta_norad_cat_id": 40664,
        "meta_element_set_no": 999,
        "meta_rev_at_epoch": 3872,
        "meta_bstar": 0,
        "meta_mean_motion_dot": -2.13e-06,
        "meta_mean_motion_ddot": 0,
        "tle_line1": "1 40664U 15026B   25360.52356682 -.00000213  00000+0  00000+0 0  9992",
        "tle_line2": "2 40664   0.0148  16.6993 0002528 271.8752 276.4147  1.00272266 38725"
      },
      "geometry": {
        "type": "Point",
        "coordinates": [
          -35.46807998904725,
          -0.025722966827567296
        ]
      }
    },
    {
      "type": "Feature",
      "properties": {
        "norad_id": 40874,
        "name": "INTELSAT 34 (IS-34)",
        "group": "intelsat",
        "lat": -0.0018915966149078735,
        "lon": -12.236352679847192,
        "alt_km": 35789.045258862214,
        "timestamp": "2025-12-26T20:30:45.601103+00:00",
        "meta_object_name": "INTELSAT 34 (IS-34)",
        "meta_object_id": "2015-039A",
        "meta_epoch": "2025-12-26T01:50:17.564352",
        "meta_mean_motion": 1.00269247,
        "meta_eccentricity": 5.15e-05,
        "meta_inclination": 0.0147,
        "meta_ra_of_asc_node": 340.5004,
        "meta_arg_of_pericenter": 185.0401,
        "meta_mean_anomaly": 261.3543,
        "meta_ephemeris_type": 0,
        "meta_classification_type": "U",
        "meta_norad_cat_id": 40874,
        "meta_element_set_no": 999,
        "meta_rev_at_epoch": 3788,
        "meta_bstar": 0,
        "meta_mean_motion_dot": -2.64e-06,
        "meta_mean_motion_ddot": 0,
        "tle_line1": "1 40874U 15039A   25360.07659218 -.00000264  00000+0  00000+0 0  9996",
        "tle_line2": "2 40874   0.0147 340.5004 0000515 185.0401 261.3543  1.00269247 37884"
      },
      "geometry": {
        "type": "Point",
        "coordinates": [
          -12.236352679847192,
          -0.0018915966149078735
        ]
      }
    }
  ]
}